{"crs": {"properties": {"name": "urn:ogc:def:crs:OGC:1.3:CRS84"}, "type": "name"}, "features": [{"geometry": {"coordinates": [[[[113.533083, 22.212306], [113.533416, 22.211308], [113.533444, 22.211221], [113.533969, 22.209644], [113.534652, 22.207362], [113.535389, 22.206694], [113.535494, 22.204848], [113.535532, 22.204163], [113.535639, 22.202306], [113.534721, 22.198772], [113.534198, 22.196759], [113.533611, 22.1945], [113.529222, 22.188528], [113.530194, 22.187917], [113.529167, 22.186556], [113.528361, 22.1845], [113.52823, 22.182984], [113.528167, 22.182167], [113.529417, 22.177], [113.530583, 22.175444], [113.531972, 22.173306], [113.532139, 22.172083], [113.532553, 22.171238], [113.53279, 22.170755], [113.539528, 22.157], [113.54525, 22.150778], [113.549555, 22.145361], [113.549506, 22.14418], [113.549333, 22.140036], [113.549327, 22.13991], [113.549197, 22.136826], [113.549174, 22.136281], [113.548523, 22.119364], [113.548473, 22.11807], [113.548306, 22.115583], [113.549639, 22.108861], [113.565907, 22.101214], [113.570972, 22.098833], [113.570972, 22.076667], [113.610222, 22.076667], [113.630139, 22.108861], [113.630139, 22.165639], [113.60525, 22.204111], [113.580987, 22.204049], [113.580435, 22.204048], [113.580213, 22.204047], [113.57806, 22.204042], [113.576845, 22.204043], [113.576712, 22.204042], [113.576114, 22.204039], [113.575668, 22.204037], [113.575511, 22.204038], [113.571499, 22.204029], [113.570541, 22.204078], [113.570616, 22.206194], [113.570025, 22.20819], [113.568972, 22.209083], [113.562278, 22.212222], [113.55389, 22.215314], [113.553873, 22.21532], [113.552028, 22.216], [113.551584, 22.215769], [113.550757, 22.216067], [113.550847, 22.217036], [113.550003, 22.216933], [113.549653, 22.216733], [113.549417, 22.216656], [113.5492, 22.216614], [113.549045, 22.216603], [113.548855, 22.216598], [113.548655, 22.216627], [113.548336, 22.216733], [113.547717, 22.216658], [113.547628, 22.216558], [113.547039, 22.21678], [113.546567, 22.216783], [113.546505, 22.216797], [113.545478, 22.216811], [113.545189, 22.216922], [113.544355, 22.216953], [113.543392, 22.216314], [113.542464, 22.214433], [113.542408, 22.214286], [113.542014, 22.213694], [113.541956, 22.213672], [113.541717, 22.213233], [113.541586, 22.213299], [113.541533, 22.213325], [113.541477, 22.213259], [113.541331, 22.213086], [113.541264, 22.213056], [113.541198, 22.213026], [113.5409, 22.213033], [113.538142, 22.213642], [113.536333, 22.213636], [113.535997, 22.213615], [113.535706, 22.213558], [113.535439, 22.213475], [113.535194, 22.213432], [113.534567, 22.213198], [113.533083, 22.212306]]], [[[113.547415, 22.136113], [113.5404, 22.135678], [113.540172, 22.135452], [113.540756, 22.124058], [113.5411, 22.123502], [113.545666, 22.120599], [113.546555, 22.120619], [113.546555, 22.120634], [113.54656, 22.12072], [113.546563, 22.120772], [113.54659, 22.121219], [113.546613, 22.121594], [113.54664, 22.122041], [113.546662, 22.122414], [113.546708, 22.123169], [113.546955, 22.127268], [113.546963, 22.127403], [113.547079, 22.129326], [113.547145, 22.130415], [113.547225, 22.131739], [113.547278, 22.132628], [113.547308, 22.133219], [113.547324, 22.133704], [113.547346, 22.134425], [113.547382, 22.135576], [113.547397, 22.135816], [113.547415, 22.136113]]], [[[113.544599, 22.143683], [113.54495, 22.143699], [113.544973, 22.143464], [113.546266, 22.143536], [113.546268, 22.143359], [113.545587, 22.143319], [113.545484, 22.14324], [113.545451, 22.143178], [113.545457, 22.143088], [113.545513, 22.14239], [113.54554, 22.142355], [113.545607, 22.142316], [113.545678, 22.142307], [113.545834, 22.142309], [113.546436, 22.142326], [113.546513, 22.14234], [113.546568, 22.142361], [113.546599, 22.142413], [113.546809, 22.142421], [113.546674, 22.139534], [113.546627, 22.139406], [113.546561, 22.139325], [113.546408, 22.139084], [113.546414, 22.139052], [113.54584, 22.139029], [113.545747, 22.138991], [113.545684, 22.138933], [113.545674, 22.13888], [113.545674, 22.13882], [113.545724, 22.13789], [113.545764, 22.137802], [113.545829, 22.137759], [113.545894, 22.137725], [113.546012, 22.137718], [113.546025, 22.137529], [113.545218, 22.137491], [113.545105, 22.139083], [113.544805, 22.139071], [113.544599, 22.143683]]]], "type": "MultiPolygon"}, "properties": {"id": 0}, "type": "Feature"}], "name": "features", "type": "FeatureCollection"}